ONEWEB-0312             
1 49098U 21075Z   26164.84573272  .00000075  00000+0  15871-3 0  9998
2 49098  87.9133   6.5384 0002163  92.5516 267.5863 13.17652597233167
ONEWEB-0313             
1 49099U 21075AA  26164.85063374 -.00000004  00000+0 -43061-4 0  9994
2 49099  87.9131   6.5432 0001983  86.8853 273.2505 13.17648035233157
ONEWEB-0314             
1 49100U 21075AB  26164.58922510  .00000041  00000+0  72283-4 0  9990
2 49100  87.9144   6.5675 0002229  92.1067 268.0319 13.17649116233093
ONEWEB-0315             
1 49101U 21075AC  26164.77782758 -.00000382  00000+0 -10981-2 0  9995
2 49101  87.8947 351.3225 0002130  82.7563 277.3807 13.12443811234728
ONEWEB-0316             
1 49102U 21075AD  26164.51674531  .00000044  00000+0  77780-4 0  9992
2 49102  87.9161 336.1867 0001914  91.2847 268.8504 13.18686884236726
ONEWEB-0317             
1 49103U 21075AE  26164.55250650 -.00000359  00000+0 -10327-2 0  9992
2 49103  87.8952 351.3916 0001459 113.8341 246.2940 13.12443594234716
ONEWEB-0318             
1 49104U 21075AF  26164.74100451  .00000040  00000+0  68982-4 0  9994
2 49104  87.9169 336.1434 0002041  86.9223 273.2143 13.18685673236710
ONEWEB-0319             
1 49105U 21075AG  26164.83221222  .00000054  00000+0  10685-3 0  9996
2 49105  87.9133   6.5356 0002259  77.6533 282.4851 13.17648984233162
ONEWEB-0323             
1 49106U 21075AH  26164.76258380 -.00000142  00000+0 -42953-3 0  9997
2 49106  87.8948 351.3304 0002336  83.9308 276.2087 13.12442458234106
ONEWEB-0329             
1 49107U 21075AJ  26164.84065054  .00000035  00000+0  56617-4 0  9993
2 49107  87.9136   6.5348 0002010  89.3657 270.7705 13.17648440233143
ONEWEB-0330             
1 49108U 21075AK  26164.63661698  .00000002  00000+0 -28019-4 0  9997
2 49108  87.9138   6.5953 0002010  93.3621 266.7741 13.17649257233157
ONEWEB-0292             
1 49186U 21083A   26164.81375771  .00001291  00000+0  35003-2 0  9995
2 49186  87.8943 320.9103 0001893  91.5322 268.6023 13.13466025230485
ONEWEB-0303             
1 49187U 21083B   26164.73763133  .00000131  00000+0  30040-3 0  9999
2 49187  87.9163 336.1429 0002005  89.3085 270.8276 13.18686968229521
ONEWEB-0306             
1 49188U 21083C   26164.72751059  .00000043  00000+0  75777-4 0  9992
2 49188  87.9169 336.1324 0001711  98.8316 261.3010 13.18687101229562
ONEWEB-0307             
1 49189U 21083D   26164.80782448  .00000427  00000+0  11331-2 0  9998
2 49189  87.8949 320.9083 0001968  94.6390 265.4963 13.13470734230483
ONEWEB-0320             
1 49190U 21083E   26164.44423178  .00000065  00000+0  13216-3 0  9995
2 49190  87.9157 336.2075 0001814  93.0539 267.0801 13.18685677229482
ONEWEB-0321             
1 49191U 21083F   26164.86775039 -.00000009  00000+0 -53361-4 0  9994
2 49191  87.9190 275.0964 0001781 106.8812 253.2516 13.20771760236397
ONEWEB-0322             
1 49192U 21083G   26164.80357052  .00000426  00000+0  11303-2 0  9999
2 49192  87.8948 320.9097 0001968 108.8296 251.3047 13.13467370230472
ONEWEB-0324             
1 49193U 21083H   26164.87251241  .00000010  00000+0 -65614-5 0  9997
2 49193  87.9170 336.1088 0001949  97.5446 262.5908 13.18684981229562
ONEWEB-0325             
1 49194U 21083J   26164.72413713  .00000041  00000+0  70335-4 0  9994
2 49194  87.9159 336.1472 0001808  89.9142 270.2197 13.18685606229559
ONEWEB-0326             
1 49195U 21083K   26164.73945123  .00000055  00000+0  10662-3 0  9992
2 49195  87.9168 336.1417 0002041  85.7747 274.3618 13.18685404229542
ONEWEB-0327             
1 49196U 21083L   26164.73917056  .00000063  00000+0  12753-3 0  9999
2 49196  87.9160 336.1464 0002002  81.0385 279.0974 13.18684730229561
ONEWEB-0328             
1 49197U 21083M   26164.86960922  .00000092  00000+0  21583-3 0  9997
2 49197  87.8958 320.8693 0001933  99.5578 260.5769 13.13469944230461
ONEWEB-0331             
1 49198U 21083N   26164.73256625  .00000027  00000+0  36514-4 0  9991
2 49198  87.9168 336.1366 0002134  87.0120 273.1256 13.18686159229555
ONEWEB-0333             
1 49199U 21083P   26164.86452731  .00000007  00000+0 -16561-4 0  9991
2 49199  87.8948 320.8970 0001815  94.5997 265.5340 13.13470191230476
ONEWEB-0334             
1 49200U 21083Q   26164.80916169  .00031193  00000+0  76082-1 0  9998
2 49200  87.9192 275.1199 0001138 123.6352 236.4890 13.21073350236347
ONEWEB-0335             
1 49201U 21083R   26164.85945060 -.00000180  00000+0 -52753-3 0  9991
2 49201  87.8949 320.8950 0001983  93.0782 267.0574 13.13471040230482
ONEWEB-0336             
1 49202U 21083S   26164.83066779 -.00000110  00000+0 -33663-3 0  9993
2 49202  87.8950 320.8961 0002228  93.5898 266.5485 13.13469685230479
ONEWEB-0337             
1 49203U 21083T   26164.84069043 -.00000295  00000+0 -84262-3 0  9997
2 49203  87.8947 320.9001 0002015  98.4855 261.6503 13.13469650230472
ONEWEB-0338             
1 49204U 21083U   26164.85932677 -.00000023  00000+0 -88703-4 0  9995
2 49204  87.9181 275.1121 0001657 102.6065 257.5253 13.20773914236370
ONEWEB-0339             
1 49205U 21083V   26164.84928762 -.00000404  00000+0 -11421-2 0  9999
2 49205  87.8948 320.8913 0001613 103.3536 256.7773 13.13469476230459
