OBJECT_NAME,OBJECT_ID,EPOCH,MEAN_MOTION,ECCENTRICITY,INCLINATION,RA_OF_ASC_NODE,ARG_OF_PERICENTER,MEAN_ANOMALY,EPHEMERIS_TYPE,CLASSIFICATION_TYPE,NORAD_CAT_ID,ELEMENT_SET_NO,REV_AT_EPOCH,BSTAR,MEAN_MOTION_DOT,MEAN_MOTION_DDOT
ONEWEB-0312,2021-075Z,2026-06-13T20:17:51.307008,13.17652597,.0002163,87.9133,6.5384,92.5516,267.5863,0,U,49098,999,23316,.15871E-3,.75E-6,0
ONEWEB-0313,2021-075AA,2026-06-13T20:24:54.755136,13.17648035,.0001983,87.9131,6.5432,86.8853,273.2505,0,U,49099,999,23315,-.43061E-4,-.4E-7,0
ONEWEB-0314,2021-075AB,2026-06-13T14:08:29.048640,13.17649116,.0002229,87.9144,6.5675,92.1067,268.0319,0,U,49100,999,23309,.72283E-4,.41E-6,0
ONEWEB-0315,2021-075AC,2026-06-13T18:40:04.302912,13.12443811,.000213,87.8947,351.3225,82.7563,277.3807,0,U,49101,999,23472,-.10981E-2,-.382E-5,0
ONEWEB-0316,2021-075AD,2026-06-13T12:24:06.794784,13.18686884,.00019147,87.9161,336.1867,91.2847,268.8504,0,U,49102,999,23672,.77779981E-4,.44E-6,0
ONEWEB-0317,2021-075AE,2026-06-13T13:15:36.561600,13.12443594,.0001459,87.8952,351.3916,113.8341,246.2940,0,U,49103,999,23471,-.10327E-2,-.359E-5,0
ONEWEB-0318,2021-075AF,2026-06-13T17:47:02.789664,13.18685673,.0002041,87.9169,336.1434,86.9223,273.2143,0,U,49104,999,23671,.68982E-4,.4E-6,0
ONEWEB-0319,2021-075AG,2026-06-13T19:58:23.135808,13.17648984,.0002259,87.9133,6.5356,77.6533,282.4851,0,U,49105,999,23316,.10685E-3,.54E-6,0
ONEWEB-0323,2021-075AH,2026-06-13T18:18:07.240320,13.12442458,.0002336,87.8948,351.3304,83.9308,276.2087,0,U,49106,999,23410,-.42953E-3,-.142E-5,0
ONEWEB-0329,2021-075AJ,2026-06-13T20:10:32.206656,13.17648440,.000201,87.9136,6.5348,89.3657,270.7705,0,U,49107,999,23314,.56617E-4,.35E-6,0
ONEWEB-0330,2021-075AK,2026-06-13T15:16:43.707072,13.17649257,.000201,87.9138,6.5953,93.3621,266.7741,0,U,49108,999,23315,-.28019E-4,.2E-7,0
ONEWEB-0292,2021-083A,2026-06-13T19:31:48.666144,13.13466025,.0001893,87.8943,320.9103,91.5322,268.6023,0,U,49186,999,23048,.35003E-2,.1291E-4,0
ONEWEB-0303,2021-083B,2026-06-13T17:42:11.346912,13.18686968,.0002005,87.9163,336.1429,89.3085,270.8276,0,U,49187,999,22952,.3004E-3,.131E-5,0
ONEWEB-0306,2021-083C,2026-06-13T17:27:36.914976,13.18687101,.0001711,87.9169,336.1324,98.8316,261.3010,0,U,49188,999,22956,.75777E-4,.43E-6,0
ONEWEB-0307,2021-083D,2026-06-13T19:23:16.035072,13.13470734,.0001968,87.8949,320.9083,94.6390,265.4963,0,U,49189,999,23048,.11331E-2,.427E-5,0
ONEWEB-0320,2021-083E,2026-06-13T10:39:41.625792,13.18685677,.00018144,87.9157,336.2075,93.0539,267.0801,0,U,49190,999,22948,.13215774E-3,.65E-6,0
ONEWEB-0321,2021-083F,2026-06-13T20:49:33.633696,13.20771760,.0001781,87.9190,275.0964,106.8812,253.2516,0,U,49191,999,23639,-.53361E-4,-.9E-7,0
ONEWEB-0322,2021-083G,2026-06-13T19:17:08.492928,13.13467370,.0001968,87.8948,320.9097,108.8296,251.3047,0,U,49192,999,23047,.11303E-2,.426E-5,0
ONEWEB-0324,2021-083H,2026-06-13T20:56:25.072224,13.18684981,.0001949,87.9170,336.1088,97.5446,262.5908,0,U,49193,999,22956,-.65614E-5,.1E-6,0
ONEWEB-0325,2021-083J,2026-06-13T17:22:45.448032,13.18685606,.0001808,87.9159,336.1472,89.9142,270.2197,0,U,49194,999,22955,.70335E-4,.41E-6,0
ONEWEB-0326,2021-083K,2026-06-13T17:44:48.586272,13.18685404,.0002041,87.9168,336.1417,85.7747,274.3618,0,U,49195,999,22954,.10662E-3,.55E-6,0
ONEWEB-0327,2021-083L,2026-06-13T17:44:24.336384,13.18684730,.0002002,87.9160,336.1464,81.0385,279.0974,0,U,49196,999,22956,.12753E-3,.63E-6,0
ONEWEB-0328,2021-083M,2026-06-13T20:52:14.236608,13.13469944,.0001933,87.8958,320.8693,99.5578,260.5769,0,U,49197,999,23046,.21583E-3,.92E-6,0
ONEWEB-0331,2021-083N,2026-06-13T17:34:53.724000,13.18686159,.0002134,87.9168,336.1366,87.0120,273.1256,0,U,49198,999,22955,.36514E-4,.27E-6,0
ONEWEB-0333,2021-083P,2026-06-13T20:44:55.159584,13.13470191,.0001815,87.8948,320.8970,94.5997,265.5340,0,U,49199,999,23047,-.16561E-4,.7E-7,0
ONEWEB-0334,2021-083Q,2026-06-13T19:25:11.570016,13.21073350,.0001138,87.9192,275.1199,123.6352,236.4890,0,U,49200,999,23634,.76082E-1,.31193E-3,0
ONEWEB-0335,2021-083R,2026-06-13T20:37:36.531840,13.13471040,.0001983,87.8949,320.8950,93.0782,267.0574,0,U,49201,999,23048,-.52753E-3,-.18E-5,0
ONEWEB-0336,2021-083S,2026-06-13T19:56:09.697056,13.13469685,.0002228,87.8950,320.8961,93.5898,266.5485,0,U,49202,999,23047,-.33663E-3,-.11E-5,0
ONEWEB-0337,2021-083T,2026-06-13T20:10:35.653152,13.13469650,.0002015,87.8947,320.9001,98.4855,261.6503,0,U,49203,999,23047,-.84262E-3,-.295E-5,0
ONEWEB-0338,2021-083U,2026-06-13T20:37:25.832928,13.20773914,.0001657,87.9181,275.1121,102.6065,257.5253,0,U,49204,999,23637,-.88703E-4,-.23E-6,0
ONEWEB-0339,2021-083V,2026-06-13T20:22:58.450368,13.13469476,.0001613,87.8948,320.8913,103.3536,256.7773,0,U,49205,999,23045,-.11421E-2,-.404E-5,0
